NORAD_CAT_ID,OBJECT_NAME,OBJECT_TYPE,EPOCH,MEAN_MOTION,ECCENTRICITY,INCLINATION,RA_OF_ASC_NODE,ARG_OF_PERICENTER,MEAN_ANOMALY,BSTAR,MEAN_MOTION_DOT,MEAN_MOTION_DDOT,TLE_LINE0,TLE_LINE1,TLE_LINE2,SEMIMAJOR_AXIS,PERIOD,APOGEE,PERIGEE,DECAYED
49409.0,STARLINK-3075,PAYLOAD,2022-09-16 18:31:39,15.08833927,0.0001665,53.2169,170.0119,54.9502,305.1646,2.2479e-05,7e-07,0.0,0 STARLINK-3075,1 49409U 21104B   22259.77198300  .00000070  00000-0  22479-4 0  9994,2 49409  53.2169 170.0119 0001665  54.9502 305.1646 15.08833927 48009,6917.899,95.438,540.9159999999998,538.612,0.0
49409.0,STARLINK-3075,PAYLOAD,2022-09-17 00:53:12,15.08822758,0.0001774999999999,53.2169,168.8222,51.9044,308.2108,-4.534e-05,-1.009e-05,0.0,0 STARLINK-3075,1 49409U 21104B   22260.03695326 -.00001009  00000-0 -45340-4 0  9992,2 49409  53.2169 168.8222 0001775  51.9044 308.2108 15.08822758 48040,6917.933000000001,95.439,541.026,538.57,0.0
49409.0,STARLINK-3075,PAYLOAD,2022-09-17 10:25:31,15.08828799,0.0001757,53.2169,167.0385,51.8099,308.3051,-3.3437e-05,-8.2e-06,0.0,0 STARLINK-3075,1 49409U 21104B   22260.43439191 -.00000820  00000-0 -33437-4 0  9996,2 49409  53.2169 167.0385 0001757  51.8099 308.3051 15.08828799 47026,6917.915,95.438,540.995,538.564,0.0
49409.0,STARLINK-3075,PAYLOAD,2022-09-18 02:19:22,15.0883878,0.0001841,53.2167,164.0633,49.2361,310.8791,5.673600000000003e-05,6.15e-06,0.0,0 STARLINK-3075,1 49409U 21104B   22261.09678555  .00000615  00000-0  56736-4 0  9995,2 49409  53.2167 164.0633 0001841  49.2361 310.8791 15.08838780 47125,6917.884,95.438,541.023,538.476,0.0
49409.0,STARLINK-3075,PAYLOAD,2022-09-18 21:23:59,15.08833787,0.0001861,53.2168,160.4954,51.0428,309.0729,0.00018024,2.581e-05,0.0,0 STARLINK-3075,1 49409U 21104B   22261.89166623  .00002581  00000-0  18024-3 0  9992,2 49409  53.2168 160.4954 0001861  51.0428 309.0729 15.08833787 47245,6917.899,95.438,541.052,538.477,0.0
49409.0,STARLINK-3075,PAYLOAD,2022-09-19 03:45:32,15.08837876,0.0001867,53.2166,159.3061,51.4058,308.7102,0.00021161,3.081e-05,0.0,0 STARLINK-3075,1 49409U 21104B   22262.15662498  .00003081  00000-0  21161-3 0  9995,2 49409  53.2166 159.3061 0001867  51.4058 308.7102 15.08837876 47286,6917.887,95.438,541.043,538.46,0.0
49409.0,STARLINK-3075,PAYLOAD,2022-09-20 02:00:56,15.08844742,0.0001871,53.2163,155.1428,52.2178,307.8984,4.5069e-05,4.29e-06,0.0,0 STARLINK-3075,1 49409U 21104B   22263.08398476  .00000429  00000-0  45069-4 0  9997,2 49409  53.2163 155.1428 0001871  52.2178 307.8984 15.08844742 47425,6917.866,95.437,541.025,538.437,0.0
49409.0,STARLINK-3075,PAYLOAD,2022-09-20 16:19:24,15.08842181,0.0001868,53.2161,152.4664,52.7358,307.3805,-4.6076e-06,-3.61e-06,0.0,0 STARLINK-3075,1 49409U 21104B   22263.68014654 -.00000361  00000-0 -46076-5 0  9993,2 49409  53.2161 152.4664 0001868  52.7358 307.3805 15.08842181 48597,6917.874,95.437,541.031,538.446,0.0
49409.0,STARLINK-3075,PAYLOAD,2022-09-21 19:20:57,15.08844935,0.0002054,53.2196,147.4126,73.3408,286.7809,1.4769e-05,-5.3e-07,0.0,0 STARLINK-3075,1 49409U 21104B   22264.80622336 -.00000053  00000-0  14769-4 0  9990,2 49409  53.2196 147.4126 0002054  73.3408 286.7809 15.08844935 48767,6917.865,95.437,541.151,538.309,0.0
49409.0,STARLINK-3075,PAYLOAD,2022-09-22 09:39:25,15.08839561,0.0001330999999999,53.2194,144.7342,75.773,284.341,8.1339e-05,1.007e-05,0.0,0 STARLINK-3075,1 49409U 21104B   22265.40238179  .00001007  00000-0  81339-4 0  9991,2 49409  53.2194 144.7342 0001331  75.7730 284.3410 15.08839561 47777,6917.882,95.438,540.668,538.826,0.0
49409.0,STARLINK-3075,PAYLOAD,2022-09-22 20:47:08,15.08838102,0.0001926,53.2162,142.6539,51.1073,309.0091,-6.194e-06,-3.87e-06,0.0,0 STARLINK-3075,1 49409U 21104B   22265.86606915 -.00000387  00000-0 -61940-5 0  9997,2 49409  53.2162 142.6539 0001926  51.1073 309.0091 15.08838102 48923,6917.886,95.438,541.0840000000002,538.419,0.0
49409.0,STARLINK-3075,PAYLOAD,2022-09-22 22:22:31,15.08851052,0.0001671,53.2164,142.3555,52.7446,307.3698,-0.00019097,-3.327e-05,0.0,0 STARLINK-3075,1 49409U 21104B   22265.93230558 -.00003327  00000-0 -19097-3 0  9992,2 49409  53.2164 142.3555 0001671  52.7446 307.3698 15.08851052 47852,6917.847,95.437,540.868,538.556,0.0
49409.0,STARLINK-3075,PAYLOAD,2022-09-22 23:57:53,15.08856039,0.0001925,53.2161,142.0597,51.6287,308.4877,-0.00015765,-2.798e-05,0.0,0 STARLINK-3075,1 49409U 21104B   22265.99854164 -.00002798  00000-0 -15765-3 0  9992,2 49409  53.2161 142.0597 0001925  51.6287 308.4877 15.08856039 48947,6917.831,95.437,541.028,538.365,0.0
49409.0,STARLINK-3075,PAYLOAD,2022-09-23 20:37:55,15.0883103,0.0002008,53.216,138.1935,56.4191,303.6992,3.8106e-05,3.18e-06,0.0,0 STARLINK-3075,1 49409U 21104B   22266.85967460  .00000318  00000-0  38106-4 0  9991,2 49409  53.2160 138.1935 0002008  56.4191 303.6992 15.08831030 49072,6917.908,95.438,541.1619999999998,538.384,0.0
49409.0,STARLINK-3075,PAYLOAD,2022-09-23 22:13:18,15.08832605,0.0002026,53.2159,137.8962,56.8466,303.272,4.8978e-05,4.91e-06,0.0,0 STARLINK-3075,1 49409U 21104B   22266.92591362  .00000491  00000-0  48978-4 0  9993,2 49409  53.2159 137.8962 0002026  56.8466 303.2720 15.08832605 48001,6917.903,95.438,541.17,538.366,0.0
49409.0,STARLINK-3075,PAYLOAD,2022-09-24 20:28:41,15.08848473,0.0001720999999999,53.2164,133.7329,69.8279,290.2898,9.8203e-05,1.276e-05,0.0,0 STARLINK-3075,1 49409U 21104B   22267.85326127  .00001276  00000-0  98203-4 0  9999,2 49409  53.2164 133.7329 0001721  69.8279 290.2898 15.08848473 49222,6917.854,95.437,540.91,538.529,0.0
49409.0,STARLINK-3075,PAYLOAD,2022-09-24 22:04:05,15.08840596,0.0001879,53.2154,133.4319,55.6683,304.4487,0.00012511,1.704e-05,0.0,0 STARLINK-3075,1 49409U 21104B   22267.91950569  .00001704  00000-0  12511-3 0  9992,2 49409  53.2154 133.4319 0001879  55.6683 304.4487 15.08840596 49234,6917.879,95.438,541.043,538.444,0.0
49409.0,STARLINK-3075,PAYLOAD,2022-09-25 07:36:23,15.08844263,0.0001971,53.216,131.6488,56.8409,303.2772,8.7649e-05,1.107e-05,0.0,0 STARLINK-3075,1 49409U 21104B   22268.31694431  .00001107  00000-0  87649-4 0  9992,2 49409  53.2160 131.6488 0001971  56.8409 303.2772 15.08844263 48216,6917.8669999999975,95.437,541.096,538.369,0.0
49409.0,STARLINK-3075,PAYLOAD,2022-09-25 18:44:06,15.08839309,0.0001858,53.217,129.572,69.3323,290.7868,5.9572e-05,6.6e-06,0.0,0 STARLINK-3075,1 49409U 21104B   22268.78062940  .00000660  00000-0  59572-4 0  9994,2 49409  53.2170 129.5720 0001858  69.3323 290.7868 15.08839309 48288,6917.8830000000025,95.438,541.033,538.462,0.0
49409.0,STARLINK-3075,PAYLOAD,2022-09-26 07:27:11,15.08843311,0.0001458,53.2163,127.1892,91.1387,268.9772,-0.00025951,-4.416e-05,0.0,0 STARLINK-3075,1 49409U 21104B   22269.31055261 -.00004416  00000-0 -25951-3 0  9990,2 49409  53.2163 127.1892 0001458  91.1387 268.9772 15.08843311 49441,6917.87,95.437,540.744,538.727,0.0
49409.0,STARLINK-3075,PAYLOAD,2022-09-26 21:45:40,15.088235699999998,0.000192,53.216,124.5108,52.8251,307.2916,6.3021e-05,7.15e-06,0.0,0 STARLINK-3075,1 49409U 21104B   22269.90672065  .00000715  00000-0  63021-4 0  9999,2 49409  53.2160 124.5108 0001920  52.8251 307.2916 15.08823570 48459,6917.931,95.439,541.124,538.467,0.0
49409.0,STARLINK-3075,PAYLOAD,2022-09-26 23:21:03,15.08828845,0.0001868,53.2159,124.2153,50.0964,310.0192,-4.4215e-05,-9.92e-06,0.0,0 STARLINK-3075,1 49409U 21104B   22269.97296151 -.00000992  00000-0 -44215-4 0  9997,2 49409  53.2159 124.2153 0001868  50.0964 310.0192 15.08828845 49545,6917.9140000000025,95.438,541.072,538.487,0.0
49409.0,STARLINK-3075,PAYLOAD,2022-09-29 03:48:46,15.08846293,0.0001648,53.2162,114.4037,53.0686,307.0456,9.6163e-05,1.243e-05,0.0,0 STARLINK-3075,1 49409U 21104B   22272.15887323  .00001243  00000-0  96163-4 0  9995,2 49409  53.2162 114.4037 0001648  53.0686 307.0456 15.08846293 49873,6917.861,95.437,540.866,538.586,0.0
49409.0,STARLINK-3075,PAYLOAD,2022-09-29 13:21:06,15.08834569,0.0001823,53.2157,112.62,50.285,309.8302,2.7838000000000014e-05,1.55e-06,0.0,0 STARLINK-3075,1 49409U 21104B   22272.55632171  .00000155  00000-0  27838-4 0  9992,2 49409  53.2157 112.6200 0001823  50.2850 309.8302 15.08834569 49936,6917.897,95.438,541.023,538.501,0.0
49409.0,STARLINK-3075,PAYLOAD,2022-09-29 19:42:38,15.08837176,0.0001736,53.2163,111.4298,54.8362,305.2792,4.5745e-05,4.4e-06,0.0,0 STARLINK-3075,1 49409U 21104B   22272.82128025  .00000440  00000-0  45745-4 0  9994,2 49409  53.2163 111.4298 0001736  54.8362 305.2792 15.08837176 48892,6917.889,95.438,540.955,538.553,0.0
49409.0,STARLINK-3075,PAYLOAD,2022-09-30 03:39:34,15.08842326,0.0001757,53.2162,109.9428,55.9813,304.1346,0.00010271,1.347e-05,0.0,0 STARLINK-3075,1 49409U 21104B   22273.15247792  .00001347  00000-0  10271-3 0  9996,2 49409  53.2162 109.9428 0001757  55.9813 304.1346 15.08842326 50028,6917.873000000001,95.437,540.9540000000002,538.523,0.0
49409.0,STARLINK-3075,PAYLOAD,2022-09-30 13:11:52,15.08849826,0.0001809,53.2151,108.1584,55.9304,304.186,0.00023172,3.403e-05,0.0,0 STARLINK-3075,1 49409U 21104B   22273.54991549  .00003403  00000-0  23172-3 0  9994,2 49409  53.2151 108.1584 0001809  55.9304 304.1860 15.08849826 49002,6917.85,95.437,540.967,538.464,0.0
49409.0,STARLINK-3075,PAYLOAD,2022-09-30 19:33:25,15.08856392,0.0001851,53.215,106.9687,56.0642,304.0526,0.00043972,6.720000000000001e-05,0.0,0 STARLINK-3075,1 49409U 21104B   22273.81487341  .00006720  00000-0  43972-3 0  9999,2 49409  53.2150 106.9687 0001851  56.0642 304.0526 15.08856392 49043,6917.83,95.437,540.976,538.415,0.0
49409.0,STARLINK-3075,PAYLOAD,2022-10-01 13:02:39,15.08847059,0.0001919,53.2152,103.6977,56.0312,304.0863,0.0002663999999999,3.955e-05,0.0,0 STARLINK-3075,1 49409U 21104B   22274.54351560  .00003955  00000-0  26640-3 0  9993,2 49409  53.2152 103.6977 0001919  56.0312 304.0863 15.08847059 49156,6917.859,95.437,541.0509999999998,538.396,0.0
